{"type": "FeatureCollection", "features": [ {"type": "Feature", "properties": {"norad_id": 30272, "name": "FENGYUN 1C DEB", "group": "fengyun-1c-debris", "lat": 35.946546321911015, "lon": 62.436389538681226, "alt_km": 808.0748949602248, "timestamp": "2025-12-27T07:26:25.496907+00:00", "meta": {"OBJECT_NAME": "FENGYUN 1C DEB", "OBJECT_ID": "1999-025YH", "EPOCH": "2025-12-26T10:54:06.945984", "MEAN_MOTION": 14.14769767, "ECCENTRICITY": 0.0050059, "INCLINATION": 98.8995, "RA_OF_ASC_NODE": 68.1072, "ARG_OF_PERICENTER": 65.1953, "MEAN_ANOMALY": 295.4416, "EPHEMERIS_TYPE": 0, "CLASSIFICATION_TYPE": "U", "NORAD_CAT_ID": 30272, "ELEMENT_SET_NO": 999, "REV_AT_EPOCH": 97050, "BSTAR": 0.0010616, "MEAN_MOTION_DOT": 2.027e-05, "MEAN_MOTION_DDOT": 0}, "tle": {"line1": "1 30272U 99025YH  25360.45424706  .00002027  00000+0  10616-2 0  9993", "line2": "2 30272  98.8995  68.1072 0050059  65.1953 295.4416 14.14769767970500"}}, "geometry": {"type": "Point", "coordinates": [62.436389538681226, 35.946546321911015]}}, {"type": "Feature", "properties": {"norad_id": 30273, "name": "FENGYUN 1C DEB", "group": "fengyun-1c-debris", "lat": 76.02714564229066, "lon": -125.84812869957352, "alt_km": 890.4872321343291, "timestamp": "2025-12-27T07:26:25.496917+00:00", "meta": {"OBJECT_NAME": "FENGYUN 1C DEB", "OBJECT_ID": "1999-025YJ", "EPOCH": "2025-12-26T12:51:00.051264", "MEAN_MOTION": 14.02676486, "ECCENTRICITY": 0.0060771, "INCLINATION": 98.8389, "RA_OF_ASC_NODE": 14.6928, "ARG_OF_PERICENTER": 210.6932, "MEAN_ANOMALY": 301.5233, "EPHEMERIS_TYPE": 0, "CLASSIFICATION_TYPE": "U", "NORAD_CAT_ID": 30273, "ELEMENT_SET_NO": 999, "REV_AT_EPOCH": 96722, "BSTAR": 0.00032031, "MEAN_MOTION_DOT": 4.6e-06, "MEAN_MOTION_DDOT": 0}, "tle": {"line1": "1 30273U 99025YJ  25360.53541726  .00000460  00000+0  32031-3 0  9990", "line2": "2 30273  98.8389  14.6928 0060771 210.6932 301.5233 14.02676486967223"}}, "geometry": {"type": "Point", "coordinates": [-125.84812869957352, 76.02714564229066]}}, {"type": "Feature", "properties": {"norad_id": 30274, "name": "FENGYUN 1C DEB", "group": "fengyun-1c-debris", "lat": -21.938710315530063, "lon": 135.31668579690987, "alt_km": 727.6317508709026, "timestamp": "2025-12-27T07:26:25.496927+00:00", "meta": {"OBJECT_NAME": "FENGYUN 1C DEB", "OBJECT_ID": "1999-025YK", "EPOCH": "2025-12-26T22:12:50.880096", "MEAN_MOTION": 14.51910015, "ECCENTRICITY": 0.00046079, "INCLINATION": 99.3014, "RA_OF_ASC_NODE": 131.1065, "ARG_OF_PERICENTER": 184.7636, "MEAN_ANOMALY": 304.8599, "EPHEMERIS_TYPE": 0, "CLASSIFICATION_TYPE": "U", "NORAD_CAT_ID": 30274, "ELEMENT_SET_NO": 999, "REV_AT_EPOCH": 98416, "BSTAR": 0.0031555281, "MEAN_MOTION_DOT": 0.00012695, "MEAN_MOTION_DDOT": 0}, "tle": {"line1": "1 30274U 99025YK  25360.92558889  .00012695  00000+0  31555-2 0  9994", "line2": "2 30274  99.3014 131.1065 0004607 184.7636 304.8599 14.51910015984166"}}, "geometry": {"type": "Point", "coordinates": [135.31668579690987, -21.938710315530063]}}, {"type": "Feature", "properties": {"norad_id": 30275, "name": "FENGYUN 1C DEB", "group": "fengyun-1c-debris", "lat": -44.51493366352938, "lon": 94.39039315562823, "alt_km": 774.8409054766653, "timestamp": "2025-12-27T07:26:25.496937+00:00", "meta": {"OBJECT_NAME": "FENGYUN 1C DEB", "OBJECT_ID": "1999-025YL", "EPOCH": "2025-12-26T12:16:35.704704", "MEAN_MOTION": 14.45497507, "ECCENTRICITY": 0.0039598, "INCLINATION": 98.6266, "RA_OF_ASC_NODE": 84.995, "ARG_OF_PERICENTER": 146.704, "MEAN_ANOMALY": 335.3417, "EPHEMERIS_TYPE": 0, "CLASSIFICATION_TYPE": "U", "NORAD_CAT_ID": 30275, "ELEMENT_SET_NO": 999, "REV_AT_EPOCH": 98283, "BSTAR": 0.0023241, "MEAN_MOTION_DOT": 8.235e-05, "MEAN_MOTION_DDOT": 0}, "tle": {"line1": "1 30275U 99025YL  25360.51152436  .00008235  00000+0  23241-2 0  9996", "line2": "2 30275  98.6266  84.9950 0039598 146.7040 335.3417 14.45497507982839"}}, "geometry": {"type": "Point", "coordinates": [94.39039315562823, -44.51493366352938]}}, {"type": "Feature", "properties": {"norad_id": 30276, "name": "FENGYUN 1C DEB", "group": "fengyun-1c-debris", "lat": 16.385655845584193, "lon": 70.43654545245853, "alt_km": 787.4663990537092, "timestamp": "2025-12-27T07:26:25.496947+00:00", "meta": {"OBJECT_NAME": "FENGYUN 1C DEB", "OBJECT_ID": "1999-025YM", "EPOCH": "2025-12-24T22:09:07.879968", "MEAN_MOTION": 14.27095109, "ECCENTRICITY": 0.0023922, "INCLINATION": 98.8584, "RA_OF_ASC_NODE": 70.6482, "ARG_OF_PERICENTER": 56.0779, "MEAN_ANOMALY": 304.2671, "EPHEMERIS_TYPE": 0, "CLASSIFICATION_TYPE": "U", "NORAD_CAT_ID": 30276, "ELEMENT_SET_NO": 999, "REV_AT_EPOCH": 97704, "BSTAR": 0.0012846, "MEAN_MOTION_DOT": 3.096e-05, "MEAN_MOTION_DDOT": 0}, "tle": {"line1": "1 30276U 99025YM  25358.92300787  .00003096  00000+0  12846-2 0  9992", "line2": "2 30276  98.8584  70.6482 0023922  56.0779 304.2671 14.27095109977049"}}, "geometry": {"type": "Point", "coordinates": [70.43654545245853, 16.385655845584193]}}, {"type": "Feature", "properties": {"norad_id": 30277, "name": "FENGYUN 1C DEB", "group": "fengyun-1c-debris", "lat": 76.05535870440933, "lon": -68.46356696263992, "alt_km": 767.1093841621723, "timestamp": "2025-12-27T07:26:25.496958+00:00", "meta": {"OBJECT_NAME": "FENGYUN 1C DEB", "OBJECT_ID": "1999-025YN", "EPOCH": "2025-12-26T23:18:12.081888", "MEAN_MOTION": 14.13648767, "ECCENTRICITY": 0.01239309, "INCLINATION": 98.9713, "RA_OF_ASC_NODE": 71.6869, "ARG_OF_PERICENTER": 137.9482, "MEAN_ANOMALY": 39.0977, "EPHEMERIS_TYPE": 0, "CLASSIFICATION_TYPE": "U", "NORAD_CAT_ID": 30277, "ELEMENT_SET_NO": 999, "REV_AT_EPOCH": 96990, "BSTAR": 0.0013802751, "MEAN_MOTION_DOT": 2.76e-05, "MEAN_MOTION_DDOT": 0}, "tle": {"line1": "1 30277U 99025YN  25360.97097317  .00002760  00000+0  13803-2 0  9994", "line2": "2 30277  98.9713  71.6869 0123930 137.9482  39.0977 14.13648767969902"}}, "geometry": {"type": "Point", "coordinates": [-68.46356696263992, 76.05535870440933]}}, {"type": "Feature", "properties": {"norad_id": 30279, "name": "FENGYUN 1C DEB", "group": "fengyun-1c-debris", "lat": 67.75280521022334, "lon": -86.6010366052163, "alt_km": 683.0841799603468, "timestamp": "2025-12-27T07:26:25.496967+00:00", "meta": {"OBJECT_NAME": "FENGYUN 1C DEB", "OBJECT_ID": "1999-025YQ", "EPOCH": "2025-12-26T19:26:00.938112", "MEAN_MOTION": 14.23164812, "ECCENTRICITY": 0.02195691, "INCLINATION": 99.1515, "RA_OF_ASC_NODE": 296.0872, "ARG_OF_PERICENTER": 32.6011, "MEAN_ANOMALY": 353.8021, "EPHEMERIS_TYPE": 0, "CLASSIFICATION_TYPE": "U", "NORAD_CAT_ID": 30279, "ELEMENT_SET_NO": 999, "REV_AT_EPOCH": 97811, "BSTAR": 0.0010671061, "MEAN_MOTION_DOT": 3.039e-05, "MEAN_MOTION_DDOT": 0}, "tle": {"line1": "1 30279U 99025YQ  25360.80973308  .00003039  00000+0  10671-2 0  9991", "line2": "2 30279  99.1515 296.0872 0219569  32.6011 353.8021 14.23164812978112"}}, "geometry": {"type": "Point", "coordinates": [-86.6010366052163, 67.75280521022334]}}, {"type": "Feature", "properties": {"norad_id": 30280, "name": "FENGYUN 1C DEB", "group": "fengyun-1c-debris", "lat": -21.50486368120867, "lon": -6.4423474242975285, "alt_km": 866.7623715771088, "timestamp": "2025-12-27T07:26:25.496978+00:00", "meta": {"OBJECT_NAME": "FENGYUN 1C DEB", "OBJECT_ID": "1999-025YR", "EPOCH": "2025-12-26T21:31:44.495328", "MEAN_MOTION": 13.98334547, "ECCENTRICITY": 0.00797737, "INCLINATION": 98.7756, "RA_OF_ASC_NODE": 349.6733, "ARG_OF_PERICENTER": 290.0455, "MEAN_ANOMALY": 129.832, "EPHEMERIS_TYPE": 0, "CLASSIFICATION_TYPE": "U", "NORAD_CAT_ID": 30280, "ELEMENT_SET_NO": 999, "REV_AT_EPOCH": 96604, "BSTAR": 0.00019766077, "MEAN_MOTION_DOT": 2.47e-06, "MEAN_MOTION_DDOT": 0}, "tle": {"line1": "1 30280U 99025YR  25360.89704277  .00000247  00000+0  19766-3 0  9992", "line2": "2 30280  98.7756 349.6733 0079773 290.0455 129.8320 13.98334547966047"}}, "geometry": {"type": "Point", "coordinates": [-6.4423474242975285, -21.50486368120867]}}, {"type": "Feature", "properties": {"norad_id": 30281, "name": "FENGYUN 1C DEB", "group": "fengyun-1c-debris", "lat": 63.24317994430417, "lon": -171.45275840559063, "alt_km": 847.7151264951017, "timestamp": "2025-12-27T07:26:25.496988+00:00", "meta": {"OBJECT_NAME": "FENGYUN 1C DEB", "OBJECT_ID": "1999-025YS", "EPOCH": "2025-12-26T22:38:14.758368", "MEAN_MOTION": 14.10486534, "ECCENTRICITY": 0.00284337, "INCLINATION": 98.7582, "RA_OF_ASC_NODE": 350.3864, "ARG_OF_PERICENTER": 195.9255, "MEAN_ANOMALY": 218.2958, "EPHEMERIS_TYPE": 0, "CLASSIFICATION_TYPE": "U", "NORAD_CAT_ID": 30281, "ELEMENT_SET_NO": 999, "REV_AT_EPOCH": 97421, "BSTAR": 0.00022148789, "MEAN_MOTION_DOT": 3.53e-06, "MEAN_MOTION_DDOT": 0}, "tle": {"line1": "1 30281U 99025YS  25360.94322637  .00000353  00000+0  22149-3 0  9992", "line2": "2 30281  98.7582 350.3864 0028433 195.9255 218.2958 14.10486534974214"}}, "geometry": {"type": "Point", "coordinates": [-171.45275840559063, 63.24317994430417]}}, {"type": "Feature", "properties": {"norad_id": 30282, "name": "FENGYUN 1C DEB", "group": "fengyun-1c-debris", "lat": 1.0582435033061055, "lon": 3.6868007682609107, "alt_km": 736.1118625064355, "timestamp": "2025-12-27T07:26:25.496998+00:00", "meta": {"OBJECT_NAME": "FENGYUN 1C DEB", "OBJECT_ID": "1999-025YT", "EPOCH": "2025-12-26T23:16:29.196768", "MEAN_MOTION": 14.12998039, "ECCENTRICITY": 0.02095402, "INCLINATION": 98.5019, "RA_OF_ASC_NODE": 3.5217, "ARG_OF_PERICENTER": 321.2413, "MEAN_ANOMALY": 108.663, "EPHEMERIS_TYPE": 0, "CLASSIFICATION_TYPE": "U", "NORAD_CAT_ID": 30282, "ELEMENT_SET_NO": 999, "REV_AT_EPOCH": 97552, "BSTAR": 0.00042236718, "MEAN_MOTION_DOT": 9.26e-06, "MEAN_MOTION_DDOT": 0}, "tle": {"line1": "1 30282U 99025YT  25360.96978237  .00000926  00000+0  42237-3 0  9994", "line2": "2 30282  98.5019   3.5217 0209540 321.2413 108.6630 14.12998039975521"}}, "geometry": {"type": "Point", "coordinates": [3.6868007682609107, 1.0582435033061055]}}]}